[{"OBJECT_NAME":"STARLINK-5972","OBJECT_ID":"2023-058AX","EPOCH":"2026-03-09T22:26:50.453952","MEAN_MOTION":15.05630926,"ECCENTRICITY":0.00018776,"INCLINATION":97.6041,"RA_OF_ASC_NODE":71.4638,"ARG_OF_PERICENTER":95.6991,"MEAN_ANOMALY":264.445,"EPHEMERIS_TYPE":0,"CLASSIFICATION_TYPE":"U","NORAD_CAT_ID":56362,"ELEMENT_SET_NO":999,"REV_AT_EPOCH":15823,"BSTAR":-0.00010329263,"MEAN_MOTION_DOT":-1.55e-5,"MEAN_MOTION_DDOT":0},{"OBJECT_NAME":"UNKNOWN","OBJECT_ID":"","EPOCH":"2026-03-08T11:45:51.038784","MEAN_MOTION":14.85715368,"ECCENTRICITY":0.0087365,"INCLINATION":97.6779,"RA_OF_ASC_NODE":256.4518,"ARG_OF_PERICENTER":23.5839,"MEAN_ANOMALY":6.4538,"EPHEMERIS_TYPE":0,"CLASSIFICATION_TYPE":"U","NORAD_CAT_ID":81845,"ELEMENT_SET_NO":999,"REV_AT_EPOCH":66225,"BSTAR":0.00036382,"MEAN_MOTION_DOT":3.326e-5,"MEAN_MOTION_DDOT":0}]
